STARLINK-2603           
1 48375U 21038Y   26182.71577552  .00001420  00000+0  57517-4 0  9994
2 48375  53.1585 177.2932 0001234  90.7808 269.3335 15.31703429284694
STARLINK-2610           
1 48376U 21038Z   26182.96862139  .00101653  00000+0  81268-3 0  9998
2 48376  53.1559 166.7358 0003039  59.0825 301.0492 15.70320998284869
STARLINK-2499           
1 48377U 21038AA  26182.71078162  .00004282  00000+0  14962-3 0  9994
2 48377  53.1582 177.3726 0001266  89.6754 270.4393 15.31709408284697
STARLINK-2526           
1 48378U 21038AB  26182.26803376  .00005417  00000+0  18611-3 0  9994
2 48378  53.1581 179.5925 0001162  82.5861 277.5272 15.31716616284624
STARLINK-2612           
1 48379U 21038AC  26182.95286451  .00002008  00000+0  76479-4 0  9990
2 48379  53.1574 174.1342 0001814  90.6126 269.5083 15.31699514284762
STARLINK-2614           
1 48380U 21038AD  26182.70116453  .00000920  00000+0  41429-4 0  9997
2 48380  53.1597 175.1845 0001598 108.0364 252.0812 15.31700916284727
STARLINK-2630           
1 48381U 21038AE  26182.68288461  .00001646  00000+0  64795-4 0  9991
2 48381  53.1596 177.9973 0001287 108.9345 251.1796 15.31709070284688
STARLINK-2585           
1 48382U 21038AF  26182.95347072  .00006269  00000+0  21359-3 0  9990
2 48382  53.1577 176.1739 0000754 112.6546 247.4536 15.31700272284733
STARLINK-2598           
1 48385U 21038AJ  26182.70581118 -.00000871  00000+0 -16324-4 0  9999
2 48385  53.1608 174.9549 0001250 108.5278 251.5859 15.31684156285955
STARLINK-2606           
1 48386U 21038AK  26182.68217824  .00017107  00000+0  56101-3 0  9991
2 48386  53.1555 175.1863 0002651  74.8350 285.2945 15.31743005284713
STARLINK-2594           
1 48388U 21038AM  26182.94781652  .00002633  00000+0  96609-4 0  9993
2 48388  53.1598 173.7373 0001428  95.6808 264.4356 15.31690890284765
STARLINK-2586           
1 48390U 21038AP  26182.94976371  .00003019  00000+0  10897-3 0  9993
2 48390  53.1581 161.0592 0001371  83.7393 276.3765 15.31709909286161
STARLINK-2607           
1 48391U 21038AQ  26182.91220097  .00001813  00000+0  70188-4 0  9998
2 48391  53.1607 161.5869 0001520  90.0845 270.0331 15.31699218286152
STARLINK-2605           
1 48392U 21038AR  26182.67010273  .00002076  00000+0  78659-4 0  9998
2 48392  53.1582 162.2517 0001184  94.8539 265.2597 15.31694293286126
STARLINK-2574           
1 48395U 21038AU  26182.94540564  .00000540  00000+0  29186-4 0  9997
2 48395  53.1601 163.3280 0001665 119.5484 240.5684 15.31697558286139
STARLINK-2575           
1 48396U 21038AV  26182.26462191  .00010635  00000+0  35365-3 0  9993
2 48396  53.1576 164.0969 0001528  93.9811 266.1365 15.31731984286064
STARLINK-2590           
1 48397U 21038AW  26182.27394460  .00003304  00000+0  11815-3 0  9997
2 48397  53.1592 164.1854 0001401  94.0385 266.0777 15.31708429286069
STARLINK-2588           
1 48398U 21038AX  26182.69426098  .00029438  00000+0  13046-2 0  9990
2 48398  53.0671 177.8970 0004094  83.4437 276.7025 15.21402489285887
STARLINK-2587           
1 48399U 21038AY  26182.91246888  .00003812  00000+0  13453-3 0  9994
2 48399  53.1570 161.1455 0001804  82.1469 277.9737 15.31705449286155
STARLINK-2576           
1 48400U 21038AZ  26182.67480250  .00002874  00000+0  10433-3 0  9995
2 48400  53.1583 162.5433 0000987  92.3634 267.7481 15.31707530284908
STARLINK-2571           
1 48401U 21038BA  26182.25501030  .00008181  00000+0  27496-3 0  9994
2 48401  53.1564 164.5277 0001274  90.1525 269.9622 15.31717450284836
STARLINK-2593           
1 48404U 21038BD  26182.25531074  .00001657  00000+0  65143-4 0  9991
2 48404  53.1595 164.3053 0001539  95.4479 264.6698 15.31710596284843
STARLINK-2570           
1 48405U 21038BE  26182.26932060  .00003167  00000+0  11378-3 0  9991
2 48405  53.1592 164.4145 0001384  81.8989 278.2170 15.31699479284838
STARLINK-2568           
1 48406U 21038BF  26182.23708823  .00005341  00000+0  18360-3 0  9991
2 48406  53.1585 167.5622 0001441  95.9397 264.1769 15.31724727284796
STARLINK-2592           
1 48408U 21038BH  26182.67950517  .00003330  00000+0  11896-3 0  9993
2 48408  53.1573 162.8122 0001158  78.8171 281.2960 15.31713111284892
STARLINK-2563           
1 48410U 21038BK  26182.11128161  .00003281  00000+0  11742-3 0  9992
2 48410  53.1616 128.8761 0001795  87.9344 272.1863 15.31712374285324
STARLINK-2505           
1 48411U 21038BL  26182.16151875  .00001619  00000+0  63901-4 0  9994
2 48411  53.1597 125.9250 0001502  95.4820 264.6353 15.31707324285366
STARLINK-2581           
1 48412U 21038BM  26182.85232771  .00003528  00000+0  12537-3 0  9995
2 48412  53.1603 125.3120 0001235  95.1509 264.9634 15.31707098285430
STARLINK-2461           
1 48428U 21040A   26182.80913675  .00002141  00000+0  80742-4 0  9993
2 48428  53.1595   7.7836 0001692  87.4585 272.6610 15.31706409284163
STARLINK-2700           
1 48431U 21040D   26182.81196426  .00004915  00000+0  17000-3 0  9992
2 48431  53.1603 341.8444 0000995  63.2797 296.8306 15.31710079284513
