OBJECT_NAME,OBJECT_ID,EPOCH,MEAN_MOTION,ECCENTRICITY,INCLINATION,RA_OF_ASC_NODE,ARG_OF_PERICENTER,MEAN_ANOMALY,EPHEMERIS_TYPE,CLASSIFICATION_TYPE,NORAD_CAT_ID,ELEMENT_SET_NO,REV_AT_EPOCH,BSTAR,MEAN_MOTION_DOT,MEAN_MOTION_DDOT
STARLINK-2603,2021-038Y,2026-07-01T17:10:43.004928,15.31703429,.00012341,53.1585,177.2932,90.7808,269.3335,0,U,48375,999,28469,.57517443E-4,.142E-4,0
STARLINK-2610,2021-038Z,2026-07-01T23:14:48.888096,15.70320998,.00030399,53.1559,166.7358,59.0825,301.0492,0,U,48376,999,28486,.81267781E-3,.101653E-2,0
STARLINK-2499,2021-038AA,2026-07-01T17:03:31.531968,15.31709408,.00012667,53.1582,177.3726,89.6754,270.4393,0,U,48377,999,28469,.14961552E-3,.4282E-4,0
STARLINK-2526,2021-038AB,2026-07-01T06:25:58.116864,15.31716616,.0001162,53.1581,179.5925,82.5861,277.5272,0,U,48378,999,28462,.18611E-3,.5417E-4,0
STARLINK-2612,2021-038AC,2026-07-01T22:52:07.493664,15.31699514,.00018142,53.1574,174.1342,90.6126,269.5083,0,U,48379,999,28476,.7647889E-4,.2008E-4,0
STARLINK-2614,2021-038AD,2026-07-01T16:49:40.615392,15.31700916,.00015985,53.1597,175.1845,108.0364,252.0812,0,U,48380,999,28472,.41428567E-4,.92E-5,0
STARLINK-2630,2021-038AE,2026-07-01T16:23:21.230304,15.31709070,.00012878,53.1596,177.9973,108.9345,251.1796,0,U,48381,999,28468,.6479462E-4,.1646E-4,0
STARLINK-2585,2021-038AF,2026-07-01T22:52:59.870208,15.31700272,.00007545,53.1577,176.1739,112.6546,247.4536,0,U,48382,999,28473,.21358693E-3,.6269E-4,0
STARLINK-2598,2021-038AJ,2026-07-01T16:56:22.085952,15.31684156,.00012506,53.1608,174.9549,108.5278,251.5859,0,U,48385,999,28595,-.16324273E-4,-.871E-5,0
STARLINK-2606,2021-038AK,2026-07-01T16:22:20.199936,15.31743005,.00026512,53.1555,175.1863,74.8350,285.2945,0,U,48386,999,28471,.56100868E-3,.17107E-3,0
STARLINK-2594,2021-038AM,2026-07-01T22:44:51.347328,15.31690890,.00014287,53.1598,173.7373,95.6808,264.4356,0,U,48388,999,28476,.96608938E-4,.2633E-4,0
STARLINK-2586,2021-038AP,2026-07-01T22:47:39.584544,15.31709909,.00013718,53.1581,161.0592,83.7393,276.3765,0,U,48390,999,28616,.10896961E-3,.3019E-4,0
STARLINK-2607,2021-038AQ,2026-07-01T21:53:34.163808,15.31699218,.000152,53.1607,161.5869,90.0845,270.0331,0,U,48391,999,28615,.70188028E-4,.1813E-4,0
STARLINK-2605,2021-038AR,2026-07-01T16:04:56.875872,15.31694293,.00011849,53.1582,162.2517,94.8539,265.2597,0,U,48392,999,28612,.7865886E-4,.2076E-4,0
STARLINK-2574,2021-038AU,2026-07-01T22:41:23.047296,15.31697558,.00016658,53.1601,163.3280,119.5484,240.5684,0,U,48395,999,28613,.2918623E-4,.54E-5,0
STARLINK-2575,2021-038AV,2026-07-01T06:21:03.333024,15.31731984,.00015287,53.1576,164.0969,93.9811,266.1365,0,U,48396,999,28606,.35364663E-3,.10635E-3,0
STARLINK-2590,2021-038AW,2026-07-01T06:34:28.813440,15.31708429,.00014015,53.1592,164.1854,94.0385,266.0777,0,U,48397,999,28606,.11814796E-3,.3304E-4,0
STARLINK-2588,2021-038AX,2026-07-01T16:39:44.148672,15.21402489,.00040947,53.0671,177.8970,83.4437,276.7025,0,U,48398,999,28588,.13045572E-2,.29438E-3,0
STARLINK-2587,2021-038AY,2026-07-01T21:53:57.311232,15.31705449,.00018047,53.1570,161.1455,82.1469,277.9737,0,U,48399,999,28615,.13452707E-3,.3812E-4,0
STARLINK-2576,2021-038AZ,2026-07-01T16:11:42.936000,15.31707530,.00009878,53.1583,162.5433,92.3634,267.7481,0,U,48400,999,28490,.1043292E-3,.2874E-4,0
STARLINK-2571,2021-038BA,2026-07-01T06:07:12.889920,15.31717450,.0001274,53.1564,164.5277,90.1525,269.9622,0,U,48401,999,28483,.27496E-3,.8181E-4,0
STARLINK-2593,2021-038BD,2026-07-01T06:07:38.847936,15.31710596,.00015394,53.1595,164.3053,95.4479,264.6698,0,U,48404,999,28484,.65142531E-4,.1657E-4,0
STARLINK-2570,2021-038BE,2026-07-01T06:27:49.299840,15.31699479,.00013847,53.1592,164.4145,81.8989,278.2170,0,U,48405,999,28483,.11377814E-3,.3167E-4,0
STARLINK-2568,2021-038BF,2026-07-01T05:41:24.423072,15.31724727,.0001441,53.1585,167.5622,95.9397,264.1769,0,U,48406,999,28479,.1836E-3,.5341E-4,0
STARLINK-2592,2021-038BH,2026-07-01T16:18:29.246688,15.31713111,.00011587,53.1573,162.8122,78.8171,281.2960,0,U,48408,999,28489,.11896049E-3,.333E-4,0
STARLINK-2563,2021-038BK,2026-07-01T02:40:14.731104,15.31712374,.00017955,53.1616,128.8761,87.9344,272.1863,0,U,48410,999,28532,.11742489E-3,.3281E-4,0
STARLINK-2505,2021-038BL,2026-07-01T03:52:35.220000,15.31707324,.0001502,53.1597,125.9250,95.4820,264.6353,0,U,48411,999,28536,.63901E-4,.1619E-4,0
STARLINK-2581,2021-038BM,2026-07-01T20:27:21.114144,15.31707098,.00012351,53.1603,125.3120,95.1509,264.9634,0,U,48412,999,28543,.12537041E-3,.3528E-4,0
STARLINK-2461,2021-040A,2026-07-01T19:25:09.415200,15.31706409,.00016929,53.1595,7.7836,87.4585,272.6610,0,U,48428,999,28416,.80742363E-4,.2141E-4,0
STARLINK-2700,2021-040D,2026-07-01T19:29:13.712064,15.31710079,.00009954,53.1603,341.8444,63.2797,296.8306,0,U,48431,999,28451,.17000171E-3,.4915E-4,0
